CTC1_L_00381001-01
1 10000U 22450EM  26075.70034722  .00000000  00000+0  00000-0 0  9998
2 10000  95.0000   0.0000 0000000   0.0000   0.0000 13.16009679    10
CTC1_L_00381001-02
1 10001U 22803RW  26075.70034722  .00000000  00000+0  00000-0 0  9991
2 10001  95.0000   0.0000 0000000   0.0000  90.0000 13.16009679    10
CTC1_L_00381001-03
1 10002U 25458ZS  26075.70034722  .00000000  00000+0  00000-0 0  9991
2 10002  95.0000   0.0000 0000000   0.0000 180.0000 13.16009679    11
CTC1_L_00381001-04
1 10003U 23889WA  26075.70034722  .00000000  00000+0  00000-0 0  9998
2 10003  95.0000   0.0000 0000000   0.0000 270.0000 13.16009679    12
CTC1_L_00381002-01
1 10004U 22531TT  26075.70034722  .00000000  00000+0  00000-0 0  9992
2 10004  95.0000  12.0000 0000000   0.0000  12.0000 13.16009679    10
CTC1_L_00381002-02
1 10005U 23666YI  26075.70034722  .00000000  00000+0  00000-0 0  9993
2 10005  95.0000  12.0000 0000000   0.0000 102.0000 13.16009679    11
CTC1_L_00381002-03
1 10006U 25304OH  26075.70034722  .00000000  00000+0  00000-0 0  9995
2 10006  95.0000  12.0000 0000000   0.0000 192.0000 13.16009679    11
CTC1_L_00381002-04
1 10007U 26642UZ  26075.70034722  .00000000  00000+0  00000-0 0  9992
2 10007  95.0000  12.0000 0000000   0.0000 282.0000 13.16009679    12
CTC1_L_00381003-01
1 10008U 22773WE  26075.70034722  .00000000  00000+0  00000-0 0  9994
2 10008  95.0000  24.0000 0000000   0.0000  24.0000 13.16009679    10
CTC1_L_00381003-02
1 10009U 25325WN  26075.70034722  .00000000  00000+0  00000-0 0  9991
2 10009  95.0000  24.0000 0000000   0.0000 114.0000 13.16009679    11
CTC1_L_00381003-03
1 10010U 23581PR  26075.70034722  .00000000  00000+0  00000-0 0  9995
2 10010  95.0000  24.0000 0000000   0.0000 204.0000 13.16009679    13
CTC1_L_00381003-04
1 10011U 26037VQ  26075.70034722  .00000000  00000+0  00000-0 0  9995
2 10011  95.0000  24.0000 0000000   0.0000 294.0000 13.16009679    13
CTC1_L_00381004-01
1 10012U 24560GL  26075.70034722  .00000000  00000+0  00000-0 0  9995
2 10012  95.0000  36.0000 0000000   0.0000  36.0000 13.16009679    11
CTC1_L_00381004-02
1 10013U 25825XQ  26075.70034722  .00000000  00000+0  00000-0 0  9991
2 10013  95.0000  36.0000 0000000   0.0000 126.0000 13.16009679    12
CTC1_L_00381004-03
1 10014U 22128TB  26075.70034722  .00000000  00000+0  00000-0 0  9995
2 10014  95.0000  36.0000 0000000   0.0000 216.0000 13.16009679    13
CTC1_L_00381004-04
1 10015U 25007BG  26075.70034722  .00000000  00000+0  00000-0 0  9995
2 10015  95.0000  36.0000 0000000   0.0000 306.0000 13.16009679    14
CTC1_L_00381005-01
1 10016U 26826EQ  26075.70034722  .00000000  00000+0  00000-0 0  9996
2 10016  95.0000  48.0000 0000000   0.0000  48.0000 13.16009679    11
CTC1_L_00381005-02
1 10017U 24450HX  26075.70034722  .00000000  00000+0  00000-0 0  9998
2 10017  95.0000  48.0000 0000000   0.0000 138.0000 13.16009679    12
CTC1_L_00381005-03
1 10018U 24674OC  26075.70034722  .00000000  00000+0  00000-0 0  9997
2 10018  95.0000  48.0000 0000000   0.0000 228.0000 13.16009679    13
CTC1_L_00381005-04
1 10019U 26182AN  26075.70034722  .00000000  00000+0  00000-0 0  9994
2 10019  95.0000  48.0000 0000000   0.0000 318.0000 13.16009679    14
CTC1_L_00381006-01
1 10020U 26017BT  26075.70034722  .00000000  00000+0  00000-0 0  9993
2 10020  95.0000  60.0000 0000000   0.0000  60.0000 13.16009679    14
CTC1_L_00381006-02
1 10021U 24961VB  26075.70034722  .00000000  00000+0  00000-0 0  9990
2 10021  95.0000  60.0000 0000000   0.0000 150.0000 13.16009679    15
CTC1_L_00381006-03
1 10022U 24683FA  26075.70034722  .00000000  00000+0  00000-0 0  9992
2 10022  95.0000  60.0000 0000000   0.0000 240.0000 13.16009679    16
CTC1_L_00381006-04
1 10023U 25700RO  26075.70034722  .00000000  00000+0  00000-0 0  9994
2 10023  95.0000  60.0000 0000000   0.0000 330.0000 13.16009679    17
CTC1_L_00381007-01
1 10024U 22161FB  26075.70034722  .00000000  00000+0  00000-0 0  9993
2 10024  95.0000  72.0000 0000000   0.0000  72.0000 13.16009679    14
CTC1_L_00381007-02
1 10025U 24323HN  26075.70034722  .00000000  00000+0  00000-0 0  9996
2 10025  95.0000  72.0000 0000000   0.0000 162.0000 13.16009679    15
CTC1_L_00381007-03
1 10026U 25671UR  26075.70034722  .00000000  00000+0  00000-0 0  9994
2 10026  95.0000  72.0000 0000000   0.0000 252.0000 13.16009679    16
CTC1_L_00381007-04
1 10027U 25897FT  26075.70034722  .00000000  00000+0  00000-0 0  9995
2 10027  95.0000  72.0000 0000000   0.0000 342.0000 13.16009679    17
CTC1_L_00381008-01
1 10028U 25995ZO  26075.70034722  .00000000  00000+0  00000-0 0  9995
2 10028  95.0000  84.0000 0000000   0.0000  84.0000 13.16009679    14
CTC1_L_00381008-02
1 10029U 25799CS  26075.70034722  .00000000  00000+0  00000-0 0  9998
2 10029  95.0000  84.0000 0000000   0.0000 174.0000 13.16009679    15
CTC1_L_00381008-03
1 10030U 24150WN  26075.70034722  .00000000  00000+0  00000-0 0  9990
2 10030  95.0000  84.0000 0000000   0.0000 264.0000 13.16009679    17
CTC1_L_00381008-04
1 10031U 24786WN  26075.70034722  .00000000  00000+0  00000-0 0  9996
2 10031  95.0000  84.0000 0000000   0.0000 354.0000 13.16009679    18
CTC1_L_00381009-01
1 10032U 26046LA  26075.70034722  .00000000  00000+0  00000-0 0  9998
2 10032  95.0000  96.0000 0000000   0.0000  96.0000 13.16009679    15
CTC1_L_00381009-02
1 10033U 23330TB  26075.70034722  .00000000  00000+0  00000-0 0  9992
2 10033  95.0000  96.0000 0000000   0.0000 186.0000 13.16009679    16
CTC1_L_00381009-03
1 10034U 23854RV  26075.70034722  .00000000  00000+0  00000-0 0  9994
2 10034  95.0000  96.0000 0000000   0.0000 276.0000 13.16009679    17
CTC1_L_00381009-04
1 10035U 24620IB  26075.70034722  .00000000  00000+0  00000-0 0  9997
2 10035  95.0000  96.0000 0000000   0.0000   6.0000 13.16009679    19
CTC1_L_00381010-01
1 10036U 24472YA  26075.70034722  .00000000  00000+0  00000-0 0  9993
2 10036  95.0000 108.0000 0000000   0.0000 108.0000 13.16009679    17
CTC1_L_00381010-02
1 10037U 26741ES  26075.70034722  .00000000  00000+0  00000-0 0  9995
2 10037  95.0000 108.0000 0000000   0.0000 198.0000 13.16009679    17
CTC1_L_00381010-03
1 10038U 24946WP  26075.70034722  .00000000  00000+0  00000-0 0  9991
2 10038  95.0000 108.0000 0000000   0.0000 288.0000 13.16009679    18
CTC1_L_00381010-04
1 10039U 26986H   26075.70034722  .00000000  00000+0  00000-0 0  9998
2 10039  95.0000 108.0000 0000000   0.0000  18.0000 13.16009679    10
CTC1_L_00381011-01
1 10040U 22389XM  26075.70034722  .00000000  00000+0  00000-0 0  9993
2 10040  95.0000 120.0000 0000000   0.0000 120.0000 13.16009679    10
CTC1_L_00381011-02
1 10041U 26013I   26075.70034722  .00000000  00000+0  00000-0 0  9992
2 10041  95.0000 120.0000 0000000   0.0000 210.0000 13.16009679    11
CTC1_L_00381011-03
1 10042U 25873HN  26075.70034722  .00000000  00000+0  00000-0 0  9996
2 10042  95.0000 120.0000 0000000   0.0000 300.0000 13.16009679    12
CTC1_L_00381011-04
1 10043U 22724ND  26075.70034722  .00000000  00000+0  00000-0 0  9999
2 10043  95.0000 120.0000 0000000   0.0000  30.0000 13.16009679    13
CTC1_L_00381012-01
1 10044U 23553KH  26075.70034722  .00000000  00000+0  00000-0 0  9991
2 10044  95.0000 132.0000 0000000   0.0000 132.0000 13.16009679    10
CTC1_L_00381012-02
1 10045U 25792PI  26075.70034722  .00000000  00000+0  00000-0 0  9999
2 10045  95.0000 132.0000 0000000   0.0000 222.0000 13.16009679    11
CTC1_L_00381012-03
1 10046U 25976JK  26075.70034722  .00000000  00000+0  00000-0 0  9994
2 10046  95.0000 132.0000 0000000   0.0000 312.0000 13.16009679    12
CTC1_L_00381012-04
1 10047U 23369SI  26075.70034722  .00000000  00000+0  00000-0 0  9999
2 10047  95.0000 132.0000 0000000   0.0000  42.0000 13.16009679    13
CTC1_L_00381013-01
1 10048U 25923JQ  26075.70034722  .00000000  00000+0  00000-0 0  9998
2 10048  95.0000 144.0000 0000000   0.0000 144.0000 13.16009679    10
CTC1_L_00381013-02
1 10049U 24961VY  26075.70034722  .00000000  00000+0  00000-0 0  9990
2 10049  95.0000 144.0000 0000000   0.0000 234.0000 13.16009679    11
CTC1_L_00381013-03
1 10050U 22300OW  26075.70034722  .00000000  00000+0  00000-0 0  9997
2 10050  95.0000 144.0000 0000000   0.0000 324.0000 13.16009679    13
CTC1_L_00381013-04
1 10051U 26929PM  26075.70034722  .00000000  00000+0  00000-0 0  9999
2 10051  95.0000 144.0000 0000000   0.0000  54.0000 13.16009679    14
CTC1_L_00381014-01
1 10052U 26684LL  26075.70034722  .00000000  00000+0  00000-0 0  9998
2 10052  95.0000 156.0000 0000000   0.0000 156.0000 13.16009679    11
CTC1_L_00381014-02
1 10053U 26001FG  26075.70034722  .00000000  00000+0  00000-0 0  9992
2 10053  95.0000 156.0000 0000000   0.0000 246.0000 13.16009679    12
CTC1_L_00381014-03
1 10054U 26797FU  26075.70034722  .00000000  00000+0  00000-0 0  9995
2 10054  95.0000 156.0000 0000000   0.0000 336.0000 13.16009679    13
CTC1_L_00381014-04
1 10055U 25561SM  26075.70034722  .00000000  00000+0  00000-0 0  9994
2 10055  95.0000 156.0000 0000000   0.0000  66.0000 13.16009679    14
CTC1_L_00381015-01
1 10056U 24247NS  26075.70034722  .00000000  00000+0  00000-0 0  9995
2 10056  95.0000 168.0000 0000000   0.0000 168.0000 13.16009679    11
CTC1_L_00381015-02
1 10057U 26069PK  26075.70034722  .00000000  00000+0  00000-0 0  9990
2 10057  95.0000 168.0000 0000000   0.0000 258.0000 13.16009679    12
CTC1_L_00381015-03
1 10058U 23910AH  26075.70034722  .00000000  00000+0  00000-0 0  9993
2 10058  95.0000 168.0000 0000000   0.0000 348.0000 13.16009679    13
CTC1_L_00381015-04
1 10059U 23204NU  26075.70034722  .00000000  00000+0  00000-0 0  9990
2 10059  95.0000 168.0000 0000000   0.0000  78.0000 13.16009679    14
CTC1_L_00381016-01
1 10060U 24137PC  26075.70034722  .00000000  00000+0  00000-0 0  9998
2 10060  95.0000 180.0000 0000000   0.0000 180.0000 13.16009679    14
CTC1_L_00381016-02
1 10061U 25051FS  26075.70034722  .00000000  00000+0  00000-0 0  9995
2 10061  95.0000 180.0000 0000000   0.0000 270.0000 13.16009679    15
